[{"OBJECT_NAME":"STARLINK-6373","OBJECT_ID":"2023-099T","EPOCH":"2025-12-21T05:10:21.823104","MEAN_MOTION":15.02535319,"ECCENTRICITY":0.0001339,"INCLINATION":43.0051,"RA_OF_ASC_NODE":315.2411,"ARG_OF_PERICENTER":261.5717,"MEAN_ANOMALY":98.4974,"EPHEMERIS_TYPE":0,"CLASSIFICATION_TYPE":"U","NORAD_CAT_ID":57345,"ELEMENT_SET_NO":999,"REV_AT_EPOCH":13431,"BSTAR":0.00010602,"MEAN_MOTION_DOT":1.229e-5,"MEAN_MOTION_DDOT":0},{"OBJECT_NAME":"STARLINK-6359","OBJECT_ID":"2023-099U","EPOCH":"2025-12-21T06:17:19.032576","MEAN_MOTION":15.025517,"ECCENTRICITY":0.00012211,"INCLINATION":43.0048,"RA_OF_ASC_NODE":314.7261,"ARG_OF_PERICENTER":272.0613,"MEAN_ANOMALY":88.0089,"EPHEMERIS_TYPE":0,"CLASSIFICATION_TYPE":"U","NORAD_CAT_ID":57346,"ELEMENT_SET_NO":999,"REV_AT_EPOCH":13432,"BSTAR":0.000131087,"MEAN_MOTION_DOT":1.568e-5,"MEAN_MOTION_DDOT":0},{"OBJECT_NAME":"STARLINK-6378","OBJECT_ID":"2023-099V","EPOCH":"2025-12-21T06:34:53.647392","MEAN_MOTION":15.02538448,"ECCENTRICITY":0.00010773,"INCLINATION":43.0041,"RA_OF_ASC_NODE":314.8219,"ARG_OF_PERICENTER":268.5901,"MEAN_ANOMALY":91.4818,"EPHEMERIS_TYPE":0,"CLASSIFICATION_TYPE":"U","NORAD_CAT_ID":57347,"ELEMENT_SET_NO":999,"REV_AT_EPOCH":13432,"BSTAR":2.4023234e-5,"MEAN_MOTION_DOT":1.21e-6,"MEAN_MOTION_DDOT":0},{"OBJECT_NAME":"STARLINK-6372","OBJECT_ID":"2023-099W","EPOCH":"2025-12-21T14:07:57.234432","MEAN_MOTION":15.02568267,"ECCENTRICITY":0.00011057,"INCLINATION":43.0043,"RA_OF_ASC_NODE":312.883,"ARG_OF_PERICENTER":268.4151,"MEAN_ANOMALY":91.6565,"EPHEMERIS_TYPE":0,"CLASSIFICATION_TYPE":"U","NORAD_CAT_ID":57348,"ELEMENT_SET_NO":999,"REV_AT_EPOCH":13437,"BSTAR":-0.00036892718,"MEAN_MOTION_DOT":-5.188e-5,"MEAN_MOTION_DDOT":0},{"OBJECT_NAME":"STARLINK-6376","OBJECT_ID":"2023-099X","EPOCH":"2025-12-21T14:11:10.014432","MEAN_MOTION":15.02534169,"ECCENTRICITY":7.706e-5,"INCLINATION":43.0032,"RA_OF_ASC_NODE":312.8999,"ARG_OF_PERICENTER":252.3209,"MEAN_ANOMALY":107.7549,"EPHEMERIS_TYPE":0,"CLASSIFICATION_TYPE":"U","NORAD_CAT_ID":57349,"ELEMENT_SET_NO":999,"REV_AT_EPOCH":13509,"BSTAR":4.6614871e-5,"MEAN_MOTION_DOT":4.26e-6,"MEAN_MOTION_DDOT":0},{"OBJECT_NAME":"STARLINK-6362","OBJECT_ID":"2023-099Y","EPOCH":"2025-12-21T03:09:36.179136","MEAN_MOTION":15.02530263,"ECCENTRICITY":9.206e-5,"INCLINATION":43.004,"RA_OF_ASC_NODE":303.3078,"ARG_OF_PERICENTER":258.8334,"MEAN_ANOMALY":101.2405,"EPHEMERIS_TYPE":0,"CLASSIFICATION_TYPE":"U","NORAD_CAT_ID":57350,"ELEMENT_SET_NO":999,"REV_AT_EPOCH":13444,"BSTAR":-2.8751326e-5,"MEAN_MOTION_DOT":-5.92e-6,"MEAN_MOTION_DDOT":0},{"OBJECT_NAME":"STARLINK-6331","OBJECT_ID":"2023-099Z","EPOCH":"2025-12-21T14:06:23.134464","MEAN_MOTION":15.02532311,"ECCENTRICITY":9.37e-5,"INCLINATION":43.0018,"RA_OF_ASC_NODE":312.8744,"ARG_OF_PERICENTER":256.52,"MEAN_ANOMALY":103.5538,"EPHEMERIS_TYPE":0,"CLASSIFICATION_TYPE":"U","NORAD_CAT_ID":57351,"ELEMENT_SET_NO":999,"REV_AT_EPOCH":13437,"BSTAR":2.1468131e-5,"MEAN_MOTION_DOT":8.6e-7,"MEAN_MOTION_DDOT":0},{"OBJECT_NAME":"STARLINK-6297","OBJECT_ID":"2023-099AA","EPOCH":"2025-12-21T06:11:27.943584","MEAN_MOTION":15.02529233,"ECCENTRICITY":0.0001118,"INCLINATION":43.0051,"RA_OF_ASC_NODE":302.5342,"ARG_OF_PERICENTER":268.0786,"MEAN_ANOMALY":91.9928,"EPHEMERIS_TYPE":0,"CLASSIFICATION_TYPE":"U","NORAD_CAT_ID":57352,"ELEMENT_SET_NO":999,"REV_AT_EPOCH":13446,"BSTAR":6.3569e-5,"MEAN_MOTION_DOT":6.55e-6,"MEAN_MOTION_DDOT":0},{"OBJECT_NAME":"STARLINK-6324","OBJECT_ID":"2023-099AB","EPOCH":"2025-12-21T14:03:11.335104","MEAN_MOTION":15.02527577,"ECCENTRICITY":0.00012822,"INCLINATION":43.0049,"RA_OF_ASC_NODE":312.8588,"ARG_OF_PERICENTER":267.5028,"MEAN_ANOMALY":92.5668,"EPHEMERIS_TYPE":0,"CLASSIFICATION_TYPE":"U","NORAD_CAT_ID":57353,"ELEMENT_SET_NO":999,"REV_AT_EPOCH":13437,"BSTAR":-7.1150322e-5,"MEAN_MOTION_DOT":-1.164e-5,"MEAN_MOTION_DDOT":0},{"OBJECT_NAME":"STARLINK-6293","OBJECT_ID":"2023-099AC","EPOCH":"2025-12-21T13:57:18.751392","MEAN_MOTION":15.02537568,"ECCENTRICITY":0.00012191,"INCLINATION":43.0037,"RA_OF_ASC_NODE":300.6604,"ARG_OF_PERICENTER":271.2428,"MEAN_ANOMALY":88.8274,"EPHEMERIS_TYPE":0,"CLASSIFICATION_TYPE":"U","NORAD_CAT_ID":57354,"ELEMENT_SET_NO":999,"REV_AT_EPOCH":13451,"BSTAR":5.4513104e-5,"MEAN_MOTION_DOT":5.33e-6,"MEAN_MOTION_DDOT":0},{"OBJECT_NAME":"STARLINK-6276","OBJECT_ID":"2023-099AD","EPOCH":"2025-12-21T06:16:15.733344","MEAN_MOTION":15.02529735,"ECCENTRICITY":0.00011983,"INCLINATION":43.0057,"RA_OF_ASC_NODE":302.5587,"ARG_OF_PERICENTER":265.2853,"MEAN_ANOMALY":94.7853,"EPHEMERIS_TYPE":0,"CLASSIFICATION_TYPE":"U","NORAD_CAT_ID":57355,"ELEMENT_SET_NO":999,"REV_AT_EPOCH":13446,"BSTAR":6.183869e-6,"MEAN_MOTION_DOT":-1.2e-6,"MEAN_MOTION_DDOT":0},{"OBJECT_NAME":"STARLINK-6355","OBJECT_ID":"2023-099AE","EPOCH":"2025-12-21T13:55:42.820608","MEAN_MOTION":15.02546324,"ECCENTRICITY":0.00010953,"INCLINATION":43.0046,"RA_OF_ASC_NODE":300.6484,"ARG_OF_PERICENTER":265.1893,"MEAN_ANOMALY":94.8825,"EPHEMERIS_TYPE":0,"CLASSIFICATION_TYPE":"U","NORAD_CAT_ID":57356,"ELEMENT_SET_NO":999,"REV_AT_EPOCH":13451,"BSTAR":0.00013568616,"MEAN_MOTION_DOT":1.63e-5,"MEAN_MOTION_DDOT":0},{"OBJECT_NAME":"STARLINK-5600","OBJECT_ID":"2023-099AF","EPOCH":"2025-12-21T04:32:31.279488","MEAN_MOTION":15.02545267,"ECCENTRICITY":0.00011203,"INCLINATION":43.0049,"RA_OF_ASC_NODE":302.8773,"ARG_OF_PERICENTER":269.2204,"MEAN_ANOMALY":90.851,"EPHEMERIS_TYPE":0,"CLASSIFICATION_TYPE":"U","NORAD_CAT_ID":57357,"ELEMENT_SET_NO":999,"REV_AT_EPOCH":13445,"BSTAR":0.00019597213,"MEAN_MOTION_DOT":2.445e-5,"MEAN_MOTION_DDOT":0},{"OBJECT_NAME":"STARLINK-6299","OBJECT_ID":"2023-099AG","EPOCH":"2025-12-21T05:49:05.760192","MEAN_MOTION":15.02544178,"ECCENTRICITY":0.00015155,"INCLINATION":43.006,"RA_OF_ASC_NODE":302.4101,"ARG_OF_PERICENTER":273.6389,"MEAN_ANOMALY":86.428,"EPHEMERIS_TYPE":0,"CLASSIFICATION_TYPE":"U","NORAD_CAT_ID":57358,"ELEMENT_SET_NO":999,"REV_AT_EPOCH":13520,"BSTAR":2.0549619e-5,"MEAN_MOTION_DOT":7.4e-7,"MEAN_MOTION_DDOT":0},{"OBJECT_NAME":"STARLINK-6347","OBJECT_ID":"2023-099AH","EPOCH":"2025-12-21T04:37:19.529760","MEAN_MOTION":15.02536371,"ECCENTRICITY":0.00013428,"INCLINATION":43.0049,"RA_OF_ASC_NODE":302.9015,"ARG_OF_PERICENTER":267.6934,"MEAN_ANOMALY":92.3754,"EPHEMERIS_TYPE":0,"CLASSIFICATION_TYPE":"U","NORAD_CAT_ID":57359,"ELEMENT_SET_NO":999,"REV_AT_EPOCH":13445,"BSTAR":2.0841562e-5,"MEAN_MOTION_DOT":7.8e-7,"MEAN_MOTION_DDOT":0},{"OBJECT_NAME":"STARLINK-6348","OBJECT_ID":"2023-099AJ","EPOCH":"2025-12-21T13:38:06.646272","MEAN_MOTION":15.02553904,"ECCENTRICITY":0.00015822,"INCLINATION":43.0051,"RA_OF_ASC_NODE":300.5578,"ARG_OF_PERICENTER":265.9587,"MEAN_ANOMALY":94.1075,"EPHEMERIS_TYPE":0,"CLASSIFICATION_TYPE":"U","NORAD_CAT_ID":57360,"ELEMENT_SET_NO":999,"REV_AT_EPOCH":13451,"BSTAR":0.00020232384,"MEAN_MOTION_DOT":2.532e-5,"MEAN_MOTION_DDOT":0}]
