STARLINK-6373           
1 57345U 23099T   25355.21553036  .00001229  00000+0  10602-3 0  9997
2 57345  43.0051 315.2411 0001339 261.5717  98.4974 15.02535319134318
STARLINK-6359           
1 57346U 23099U   25355.26202584  .00001568  00000+0  13109-3 0  9993
2 57346  43.0048 314.7261 0001221 272.0613  88.0089 15.02551700134329
STARLINK-6378           
1 57347U 23099V   25355.27423203  .00000121  00000+0  24023-4 0  9990
2 57347  43.0041 314.8219 0001077 268.5901  91.4818 15.02538448134328
STARLINK-6372           
1 57348U 23099W   25355.58885688 -.00005188  00000+0 -36893-3 0  9991
2 57348  43.0043 312.8830 0001105 268.4151  91.6565 15.02568267134374
STARLINK-6376           
1 57349U 23099X   25355.59108813  .00000426  00000+0  46615-4 0  9993
2 57349  43.0032 312.8999 0000770 252.3209 107.7549 15.02534169135097
STARLINK-6362           
1 57350U 23099Y   25355.13166874 -.00000592  00000+0 -28751-4 0  9993
2 57350  43.0040 303.3078 0000920 258.8334 101.2405 15.02530263134447
STARLINK-6331           
1 57351U 23099Z   25355.58776776  .00000086  00000+0  21468-4 0  9995
2 57351  43.0018 312.8744 0000937 256.5200 103.5538 15.02532311134373
STARLINK-6297           
1 57352U 23099AA  25355.25796231  .00000655  00000+0  63569-4 0  9998
2 57352  43.0051 302.5342 0001118 268.0786  91.9928 15.02529233134462
STARLINK-6324           
1 57353U 23099AB  25355.58554786 -.00001164  00000+0 -71150-4 0  9995
2 57353  43.0049 312.8588 0001282 267.5028  92.5668 15.02527577134378
STARLINK-6293           
1 57354U 23099AC  25355.58146703  .00000533  00000+0  54513-4 0  9993
2 57354  43.0037 300.6604 0001219 271.2428  88.8274 15.02537568134514
STARLINK-6276           
1 57355U 23099AD  25355.26129321 -.00000120  00000+0  61839-5 0  9999
2 57355  43.0057 302.5587 0001198 265.2853  94.7853 15.02529735134469
STARLINK-6355           
1 57356U 23099AE  25355.58035672  .00001630  00000+0  13569-3 0  9991
2 57356  43.0046 300.6484 0001095 265.1893  94.8825 15.02546324134511
STARLINK-5600           
1 57357U 23099AF  25355.18925092  .00002445  00000+0  19597-3 0  9994
2 57357  43.0049 302.8773 0001120 269.2204  90.8510 15.02545267134455
STARLINK-6299           
1 57358U 23099AG  25355.24242778  .00000074  00000+0  20550-4 0  9993
2 57358  43.0060 302.4101 0001515 273.6389  86.4280 15.02544178135200
STARLINK-6347           
1 57359U 23099AH  25355.19258715  .00000078  00000+0  20842-4 0  9994
2 57359  43.0049 302.9015 0001342 267.6934  92.3754 15.02536371134458
STARLINK-6348           
1 57360U 23099AJ  25355.56813248  .00002532  00000+0  20232-3 0  9994
2 57360  43.0051 300.5578 0001582 265.9587  94.1075 15.02553904134516
